COSMOS 2433 (720)       
1 32275U 07052A   22362.15743773 -.00000050  00000+0  00000+0 0  9999
2 32275  66.0672 358.2419 0005223 256.0907 288.0391  2.13104205118099
COSMOS 2432 (719)       
1 32276U 07052B   22361.80953288 -.00000050  00000+0  00000+0 0  9995
2 32276  66.0813 358.3577 0011395 315.4723 269.5087  2.13103421118080
COSMOS 2434 (721)       
1 32393U 07065A   22361.85531135  .00000032  00000+0  00000+0 0  9996
2 32393  64.3572 234.8307 0003669  69.5255 133.0551  2.13103210116797
COSMOS 2436 (723)       
1 32395U 07065C   22362.12187637  .00000030  00000+0  00000+0 0  9991
2 32395  64.3660 234.8810 0016609   3.8286 178.9523  2.13102870116731
COSMOS 2456 (730)       
1 36111U 09070A   22361.72987429  .00000026  00000+0  00000+0 0  9996
2 36111  64.4075 114.4160 0001699 313.1043 316.1050  2.13099157101451
COSMOS 2457 (733)       
1 36112U 09070B   22361.63144466  .00000026  00000+0  00000+0 0  9993
2 36112  64.3916 114.2907 0006463 157.1442 165.3734  2.13101331101456
COSMOS 2460 (732)       
1 36402U 10007C   22360.54620035 -.00000048  00000+0  00000+0 0  9992
2 36402  65.9372 357.0552 0002411 271.6577 283.8182  2.13106361 99787
COSMOS 2476 (744)       
1 37867U 11064A   22361.96793959  .00000028  00000+0  00000+0 0  9992
2 37867  64.6932 115.8389 0021513 231.2627 127.7328  2.13101816 86808
COSMOS 2477 (745)       
1 37868U 11064B   22361.74056912  .00000029  00000+0  00000+0 0  9991
2 37868  64.7006 115.9133 0018840 231.5950 130.9845  2.13101627 86766
COSMOS 2475 (743)       
1 37869U 11064C   22361.66152420  .00000029  00000+0  00000+0 0  9994
2 37869  64.7070 115.9265 0022576 250.5670   9.5873  2.13101812 86763
COSMOS 2485 (747)       
1 39155U 13019A   22361.79139365  .00000029  00000+0  00000+0 0  9993
2 39155  64.8553 116.3146 0021993 227.4583  40.4912  2.13101821 75273
COSMOS 2492 (754)       
1 39620U 14012A   22361.62644618 -.00000050  00000+0  00000+0 0  9993
2 39620  65.8219 356.6722 0014414 313.6612 222.0657  2.13103271 68222
COSMOS 2500 (755)       
1 40001U 14032A   22361.64888993 -.00000050  00000+0  00000+0 0  9998
2 40001  65.7611 356.5171 0007785 221.2783 189.7734  2.13102451 66441
COSMOS 2501 (702K)      
1 40315U 14075A   22361.78178631  .00000032  00000+0  00000+0 0  9998
2 40315  63.6619 234.4079 0017355 206.8590 115.0793  2.13101390 62842
COSMOS 2514 (751)       
1 41330U 16008A   22362.28069479 -.00000051  00000+0  00000+0 0  9991
2 41330  65.5595 356.1385 0011384 225.0465 134.8784  2.13102526 53623
COSMOS 2516 (753)       
1 41554U 16032A   22360.05614272  .00000051  00000+0  00000+0 0  9995
2 41554  63.8881 234.7985 0013982 213.1087 146.8929  2.13106312 51181
COSMOS 2522 (752)       
1 42939U 17055A   22362.41018529  .00000028  00000+0  00000+0 0  9998
2 42939  64.1216 235.1689 0006162 243.7622 335.8381  2.13102142 40982
COSMOS 2527 (756)       
1 43508U 18053A   22361.75305972  .00000030  00000+0  00000+0 0  9990
2 43508  65.0184 116.3570 0008126 217.8617 249.6121  2.13102533 35269
COSMOS 2529 (757)       
1 43687U 18086A   22362.42341015  .00000028  00000+0  00000+0 0  9994
2 43687  64.3375 235.5357 0008153 271.4252 273.8034  2.13102134 32298
COSMOS 2534 (758)       
1 44299U 19030A   22361.76318096  .00000032  00000+0  00000+0 0  9998
2 44299  64.4098 235.4617 0011239 293.1966 239.9138  2.13101952 27920
COSMOS 2544 (759)       
1 44850U 19088A   22362.02896641  .00000029  00000+0  16595+1 0  9994
2 44850  65.0031 116.1950 0011489 250.2428 112.2007  2.13102295 23707
COSMOS 2545 (760)       
1 45358U 20018A   22361.94944287 -.00000053  00000+0  00000+0 0  9994
2 45358  64.8982 356.6006 0011613 251.5161 259.1661  2.13102772 21652
COSMOS 2547 (705K)      
1 46805U 20075A   22361.79852252  .00000032  00000+0  00000+0 0  9994
2 46805  64.6351 234.9417 0006029 245.6499   2.9198  2.13103023 16894
COSMOS 2557 (706K)      
1 52984U 22075A   22361.35210670 -.00000053  00000+0  10000-3 0  9994
2 52984  64.8052 358.8081 0013962 280.3009 222.9283  2.13101809  3681
COSMOS 2559 (707K)      
1 54031U 22130A   22362.04429950 -.00000054  00000+0  00000+0 0  9997
2 54031  64.7782 358.9206 0007524 233.7237 125.8282  2.13101285  1672
COSMOS 2564 (761)       
1 54377U 22161A   22361.58594159  .00000034  00000+0  00000+0 0  9993
2 54377  64.7748 234.9583 0006960 216.4620   1.5632  2.13102339   618
